FENGYUN 3D              
1 43010U 17072A   26177.23860184  .00000032  00000+0  36780-4 0  9992
2 43010  99.0126 151.8243 0002360  48.2013 311.9364 14.19741286446273
NOAA 20 (JPSS-1)        
1 43013U 17073A   26177.16455878  .00000042  00000+0  40735-4 0  9994
2 43013  98.7772 116.5474 0000599 132.6118 227.5108 14.19513286445745
GOES 17                 
1 43226U 18022A   26177.19157198 -.00000172  00000+0  00000+0 0  9993
2 43226   0.9597  85.5608 0000680  23.4402 144.7721  1.00272828 30515
SENTINEL-3B             
1 43437U 18039A   26177.16633786  .00000100  00000+0  59426-4 0  9995
2 43437  98.6245 244.5697 0000746 106.5993 253.5269 14.26737139425404
FENGYUN 2H              
1 43491U 18050A   26177.11108912 -.00000121  00000+0  00000+0 0  9994
2 43491   3.0548  78.9761 0001677 124.2863 190.3122  1.00269792 29520
METOP-C                 
1 43689U 18087A   26177.14801507  .00000080  00000+0  56480-4 0  9997
2 43689  98.6640 236.5877 0002031 118.0932 242.0451 14.21514306396107
GEO-KOMPSAT-2A          
1 43823U 18100A   26176.83556382 -.00000333  00000+0  00000+0 0  9990
2 43823   0.0442 157.6311 0002457 293.4522 251.9424  1.00270592 27711
METEOR-M2 2             
1 44387U 19038A   26177.23617365  .00000202  00000+0  10735-3 0  9995
2 44387  98.9146 164.6551 0001705  35.5385 324.5906 14.24368452362587
ARKTIKA-M 1             
1 47719U 21016A   26175.46896265 -.00000298  00000+0  00000+0 0  9993
2 47719  63.2470  56.5720 7291000 269.9787  14.5750  2.00620016 38936
FENGYUN 3E              
1 49008U 21062A   26177.15099580 -.00000236  00000+0 -90576-4 0  9995
2 49008  98.7495 180.4590 0002787  71.7586 288.3894 14.19903700257853
GOES 18                 
1 51850U 22021A   26177.21859052  .00000108  00000+0  00000+0 0  9998
2 51850   0.0070  70.8869 0000633  53.6380  91.5066  1.00273030  6686
NOAA 21 (JPSS-2)        
1 54234U 22150A   26177.12667829  .00000023  00000+0  31577-4 0  9993
2 54234  98.7060 115.7657 0002190 139.9532 220.1806 14.19538014187816
METEOSAT-12 (MTG-I1)    
1 54743U 22170C   26177.16651943  .00000003  00000+0  00000+0 0  9994
2 54743   0.7482  24.4152 0003629  71.6122 237.8767  1.00275266 13062
TIANMU-1 03             
1 55973U 23039A   26177.16820927  .00016302  00000+0  31863-3 0  9999
2 55973  97.5231 351.4906 0003992  77.8303 282.3393 15.47526611182220
TIANMU-1 04             
1 55974U 23039B   26177.21883696  .00017731  00000+0  33910-3 0  9990
2 55974  97.5169 350.6974 0004432  70.8846 289.2883 15.48136677182244
TIANMU-1 05             
1 55975U 23039C   26177.21407741  .00016865  00000+0  33040-3 0  9995
2 55975  97.5212 351.1498 0003965  92.6285 267.5419 15.47453398182212
TIANMU-1 06             
1 55976U 23039D   26177.22278171  .00017324  00000+0  33252-3 0  9996
2 55976  97.5221 351.8036 0004152  87.6171 272.5555 15.48038075182247
FENGYUN 3G              
1 56232U 23055A   26177.17989185  .00024484  00000+0  39043-3 0  9997
2 56232  49.9933 299.6734 0007231 334.0018  26.0585 15.53012960181401
METEOR-M2 3             
1 57166U 23091A   26177.23256828 -.00000002  00000+0  17969-4 0  9997
2 57166  98.6079 232.0257 0004791 133.1982 226.9598 14.24047445155800
TIANMU-1 07             
1 57399U 23101A   26177.19186304  .00006799  00000+0  23729-3 0  9991
2 57399  97.2594 227.6533 0004335 103.0761 257.0964 15.29906094163022
TIANMU-1 08             
1 57400U 23101B   26177.15848036  .00007244  00000+0  25258-3 0  9992
2 57400  97.2583 227.3900 0005699  93.7061 266.4832 15.29909999163014
TIANMU-1 09             
1 57401U 23101C   26177.20711108  .00007454  00000+0  25955-3 0  9995
2 57401  97.2540 226.8487 0004887 106.4824 253.6954 15.29945233163024
TIANMU-1 10             
1 57402U 23101D   26177.17492059  .00007311  00000+0  25482-3 0  9990
2 57402  97.2620 227.8769 0006438 103.2903 256.9056 15.29916587163013
FENGYUN 3F              
1 57490U 23111A   26177.20516682  .00000030  00000+0  34332-4 0  9997
2 57490  98.6834 247.0458 0001552  86.7314 273.4040 14.19940442150146
ARKTIKA-M 2             
1 58584U 23198A   26174.74078844  .00000167  00000+0  00000+0 0  9997
2 58584  63.2421 153.6337 6904949 267.3888  18.7567  2.00611379 18452
TIANMU-1 11             
1 58645U 23205A   26177.22749484  .00005978  00000+0  22759-3 0  9999
2 58645  97.3446 198.6423 0007828 344.5577  15.5422 15.27082457138907
TIANMU-1 12             
1 58646U 23205B   26177.13253832  .00006582  00000+0  25067-3 0  9994
2 58646  97.3435 198.3028 0005677 328.7250  31.3650 15.27049196138874
TIANMU-1 13             
1 58647U 23205C   26177.16558036  .00006121  00000+0  23435-3 0  9998
2 58647  97.3462 198.6093 0005082 301.9267  58.1478 15.26901598138878
TIANMU-1 14             
1 58648U 23205D   26177.21605657  .00006304  00000+0  24093-3 0  9991
2 58648  97.3399 197.8337 0005982 307.5455  52.5240 15.26946849138884
TIANMU-1 19             
1 58660U 23208A   26177.23743661  .00008963  00000+0  29527-3 0  9998
2 58660  97.4508 293.5840 0003442 284.4941  75.5918 15.31702296138717
TIANMU-1 20             
1 58661U 23208B   26177.13764934  .00009079  00000+0  28814-3 0  9991
2 58661  97.4450 294.1284 0005579 294.8685  65.1976 15.32889938138793
